ALOS-4 (DAICHI-4)       
1 60182U 24123A   24194.83125585  .00003016  00000+0  40331-3 0  9999
2 60182  97.8749 291.1593 0003807  53.4735 306.6828 14.80220538  1735
